GLOBALSTAR M057 [-]     
1 25943U 99058A   24104.44964190 -.00000063  00000+0  26744-3 0  9997
2 25943  51.9960 127.7502 0002476 205.0338 155.0392 12.24784248114271
GLOBALSTAR M059 [-]     
1 25944U 99058B   24104.51945791 -.00000109  00000+0 -28717-3 0  9996
2 25944  52.0018 289.5433 0000962 125.7509 269.2090 11.99960915522469
GLOBALSTAR M056 [-]     
1 25945U 99058C   24104.48655220 -.00000081  00000+0  76175-4 0  9998
2 25945  51.9965 302.6290 0001687  63.0192 306.6099 12.04773761110831
GLOBALSTAR M031 [-]     
1 25946U 99058D   24104.61201715 -.00000112  00000+0 -21617-3 0  9996
2 25946  51.9953 220.3183 0001450  53.0310  54.7008 12.16006713112286
GLOBALSTAR M039 [-]     
1 25961U 99062A   24104.36864074 -.00000059  00000+0  24916-3 0  9997
2 25961  51.9825 137.8175 0002961 116.0559 244.0612 12.62287344125930
GLOBALSTAR M034 [-]     
1 25962U 99062B   24104.29975354 -.00000069  00000+0  19191-3 0  9994
2 25962  51.9893  48.8213 0013982 311.1136 220.4508 11.79426342 87663
GLOBALSTAR M029 [-]     
1 25963U 99062C   24104.51482626 -.00000057  00000+0  36678-3 0  9991
2 25963  51.9788 177.9604 0002196 358.6684 103.2759 11.99876231117549
GLOBALSTAR M061 [-]     
1 25964U 99062D   24104.58282035  .00000008  00000+0  14492-2 0  9995
2 25964  51.9786 226.4310 0005880 231.1873 215.2297 11.76760637 70603
